STARLINK-3290           
1 50828U 22001AB  26068.54543105 -.00000355  00000+0 -41869-5 0  9994
2 50828  53.2186 169.6628 0001284  77.7171 282.3965 15.08839033230238
LEMUR-2-SIERRINI        
1 60579U 24149DR  26068.80891719  .00014386  00000+0  92040-3 0  9991
2 60579  97.6873 151.1225 0006580 147.8458 212.3173 15.08682764 85461
